[{"OBJECT_NAME":"TIANMU-1 22","OBJECT_ID":"2023-208D","EPOCH":"2026-03-09T22:39:05.738688","MEAN_MOTION":15.29457749,"ECCENTRICITY":0.00031332,"INCLINATION":97.4379,"RA_OF_ASC_NODE":184.9419,"ARG_OF_PERICENTER":351.9312,"MEAN_ANOMALY":8.1877,"EPHEMERIS_TYPE":0,"CLASSIFICATION_TYPE":"U","NORAD_CAT_ID":58663,"ELEMENT_SET_NO":999,"REV_AT_EPOCH":12215,"BSTAR":0.00038239675,"MEAN_MOTION_DOT":0.00010851,"MEAN_MOTION_DDOT":0},{"OBJECT_NAME":"STARLINK-31245","OBJECT_ID":"2024-020R","EPOCH":"2026-03-09T21:14:36.927168","MEAN_MOTION":15.30186453,"ECCENTRICITY":0.0001449,"INCLINATION":53.1603,"RA_OF_ASC_NODE":280.3596,"ARG_OF_PERICENTER":117.6027,"MEAN_ANOMALY":242.5121,"EPHEMERIS_TYPE":0,"CLASSIFICATION_TYPE":"U","NORAD_CAT_ID":58891,"ELEMENT_SET_NO":999,"REV_AT_EPOCH":11983,"BSTAR":1.1946448e-5,"MEAN_MOTION_DOT":-6.0e-8,"MEAN_MOTION_DDOT":0}]
